{{Infobox Planet  
| name = 435 Ella
| image = 
| caption = 
| discovery=yes | physical_characteristics = yes | bgcolour=#FFFFC0
| discovery_ref = 
| discoverer = [[马克斯·沃夫|马克斯·沃夫]]<br>[[弗利德里希·卡尔·阿诺德·施瓦斯曼|弗利德里希·卡尔·阿诺德·施瓦斯曼]]
| discovery_site = [[海德堡|海德堡]]（[[天文台编号列表|024]]）
| discovered =  1898年9月11日
| mp_name = 435
| alt_names =1898 DS
| named_after =
| mp_category=[[小行星带|主带小行星]]
| orbit_ref = <ref>[http://ssd.jpl.nasa.gov/sbdb.cgi?sstr=435 435 Ella (1898 DS)]</ref>
| epoch = 2011年8月27日
| semimajor= 2.449857092147978AU
| perihelion=2.071338554009163AU
| aphelion=2.828375630286794[[天文单位|AU]]
| eccentricity =0.1545063748216181		
| period =1400.585267865003[[日|地球日]]<br>3.83[[年|地球年]] 
| inclination=1.817126417350786[[角度|°]]
| asc_node=23.26737160485568°	
| arg_peri=332.9789204693354°
| mean_anomaly=163.6339948868719°
| avg_speed=
 | dimensions=41.49千米
 | mass=
 | density=
 | surface_grav=
 | escape_velocity=
 | rotation=4.623小时
 | spectral_type=
 | magnitude=
 | abs_magnitude=10.23
 | albedo=0.0831
 | single_temperature=
}}
'''小行星435'''（'''435 Ella'''），是由[[德国|德国]][[天文学家|天文学家]][[马克斯·沃夫|马克斯·沃夫]]和[[弗利德里希·卡尔·阿诺德·施瓦斯曼|弗利德里希·卡尔·阿诺德·施瓦斯曼]]于1898年9月11日在德国[[海德堡|海德堡]][[王座山天文台|王座山天文台]]发现的[[小行星带|主带]][[小行星|小行星]]。

小行星435的命名依据不明。

== 参考资料 ==
{{Reflist}}

{{Minor Planet Number|(434)[[小行星434|小行星434]]|(436)[[小行星436|小行星436]]}}

[[Category:小行星带天体|Category:小行星带天体]]
[[Category:1898年发现的小行星|Category:1898年发现的小行星]]